{
  "norad_id": 62118,
  "name": "STARLINK-32549",
  "history": [
    {
      "epoch": "2026-05-04T14:21:04.130208Z",
      "apogee_km": 483.95101782360234,
      "perigee_km": 482.09850414813536,
      "latitude_deg": -6.506450675198392e-05,
      "longitude_deg": 102.3332159986836,
      "height_km": 482.8208325998115,
      "semi_major_axis_km": 6861.161760985869,
      "eccentricity": 0.000135,
      "inclination_deg": 43.0007,
      "raan_deg": 180.0855,
      "arg_perigee_deg": 268.8042,
      "mean_anomaly_deg": 91.2654,
      "mean_motion_rev_day": 15.27588127
    },
    {
      "epoch": "2026-05-05T13:53:24.845856Z",
      "apogee_km": 483.97077911884026,
      "perigee_km": 482.045541786817,
      "latitude_deg": 3.441256621206576e-05,
      "longitude_deg": 102.74098723350227,
      "height_km": 482.64613347497686,
      "semi_major_axis_km": 6861.145160452828,
      "eccentricity": 0.0001403,
      "inclination_deg": 43.001,
      "raan_deg": 174.5462,
      "arg_perigee_deg": 278.2931,
      "mean_anomaly_deg": 81.7762,
      "mean_motion_rev_day": 15.27593671
    },
    {
      "epoch": "2026-05-06T13:25:44.910048Z",
      "apogee_km": 483.7269741864757,
      "perigee_km": 482.22027429339323,
      "latitude_deg": 5.345025786116482e-05,
      "longitude_deg": 103.15069443099162,
      "height_km": 482.6353892838504,
      "semi_major_axis_km": 6861.110624239935,
      "eccentricity": 0.0001098,
      "inclination_deg": 42.9997,
      "raan_deg": 169.0062,
      "arg_perigee_deg": 278.7532,
      "mean_anomaly_deg": 81.3196,
      "mean_motion_rev_day": 15.27605205
    },
    {
      "epoch": "2026-05-07T11:23:57.395040Z",
      "apogee_km": 484.06507113504085,
      "perigee_km": 482.14803968565957,
      "latitude_deg": -3.516138250886081e-05,
      "longitude_deg": 127.52589444190275,
      "height_km": 482.77811542628575,
      "semi_major_axis_km": 6861.2435554103495,
      "eccentricity": 0.0001397,
      "inclination_deg": 43.0035,
      "raan_deg": 163.8358,
      "arg_perigee_deg": 276.3217,
      "mean_anomaly_deg": 83.7475,
      "mean_motion_rev_day": 15.27560811
    },
    {
      "epoch": "2026-05-08T18:47:06.495648Z",
      "apogee_km": 484.00671322407015,
      "perigee_km": 482.1336036698149,
      "latitude_deg": -2.5266067524707304e-05,
      "longitude_deg": 8.063310248165518,
      "height_km": 483.0018644176829,
      "semi_major_axis_km": 6861.207158446942,
      "eccentricity": 0.0001365,
      "inclination_deg": 43.0003,
      "raan_deg": 156.4501,
      "arg_perigee_deg": 260.4716,
      "mean_anomaly_deg": 99.5981,
      "mean_motion_rev_day": 15.27572966
    },
    {
      "epoch": "2026-05-09T18:19:27.283872Z",
      "apogee_km": 483.95141922337825,
      "perigee_km": 482.111253875516,
      "latitude_deg": -2.1798237187219335e-05,
      "longitude_deg": 8.471277423536165,
      "height_km": 482.9680264160015,
      "semi_major_axis_km": 6861.168336549447,
      "eccentricity": 0.0001341,
      "inclination_deg": 43.001,
      "raan_deg": 150.9114,
      "arg_perigee_deg": 259.9878,
      "mean_anomaly_deg": 100.0822,
      "mean_motion_rev_day": 15.27585931
    },
    {
      "epoch": "2026-05-10T17:51:47.519136Z",
      "apogee_km": 483.94342502574,
      "perigee_km": 482.0703327468036,
      "latitude_deg": 3.1650991829089314e-05,
      "longitude_deg": 8.880609106363014,
      "height_km": 482.9450018243086,
      "semi_major_axis_km": 6861.1438788862715,
      "eccentricity": 0.0001365,
      "inclination_deg": 42.9985,
      "raan_deg": 145.3717,
      "arg_perigee_deg": 260.0601,
      "mean_anomaly_deg": 100.0097,
      "mean_motion_rev_day": 15.27594099
    },
    {
      "epoch": "2026-05-11T17:24:07.935840Z",
      "apogee_km": 483.8488014771938,
      "perigee_km": 482.1884018215933,
      "latitude_deg": -2.8991611264937414e-05,
      "longitude_deg": 9.29056192087316,
      "height_km": 482.8630162116134,
      "semi_major_axis_km": 6861.155601649393,
      "eccentricity": 0.000121,
      "inclination_deg": 43.0001,
      "raan_deg": 139.8335,
      "arg_perigee_deg": 265.3106,
      "mean_anomaly_deg": 94.7607,
      "mean_motion_rev_day": 15.27590184
    },
    {
      "epoch": "2026-05-12T16:56:28.567680Z",
      "apogee_km": 483.7567088510332,
      "perigee_km": 482.2939090467653,
      "latitude_deg": 3.6846452815245484e-05,
      "longitude_deg": 9.698451439155967,
      "height_km": 482.8127915921288,
      "semi_major_axis_km": 6861.1623089488985,
      "eccentricity": 0.0001066,
      "inclination_deg": 43.0002,
      "raan_deg": 134.294,
      "arg_perigee_deg": 269.1344,
      "mean_anomaly_deg": 90.9386,
      "mean_motion_rev_day": 15.27587944
    },
    {
      "epoch": "2026-05-13T08:38:02.529600Z",
      "apogee_km": 483.8175615281107,
      "perigee_km": 482.2779116732181,
      "latitude_deg": -3.0722865311893857e-06,
      "longitude_deg": 129.96992220708856,
      "height_km": 482.8291754963843,
      "semi_major_axis_km": 6861.184736600664,
      "eccentricity": 0.0001122,
      "inclination_deg": 43.0011,
      "raan_deg": 130.6015,
      "arg_perigee_deg": 269.639,
      "mean_anomaly_deg": 90.4333,
      "mean_motion_rev_day": 15.27580454
    },
    {
      "epoch": "2026-05-14T06:36:14.030496Z",
      "apogee_km": 483.6947669455021,
      "perigee_km": 482.34160991924,
      "latitude_deg": -9.668737170669206e-06,
      "longitude_deg": 154.34822510371396,
      "height_km": 482.65274947653967,
      "semi_major_axis_km": 6861.155188432371,
      "eccentricity": 9.861e-05,
      "inclination_deg": 43.003,
      "raan_deg": 125.43,
      "arg_perigee_deg": 282.1258,
      "mean_anomaly_deg": 77.9483,
      "mean_motion_rev_day": 15.27590322
    }
  ]
}